ZHONGXING-12            
1 39017U 12067A   26115.94093962 -.00000220  00000+0  00000+0 0  9996
2 39017   0.0444  71.2993 0003151 310.3073 258.5751  1.00271195 48980
EUTELSAT 70B            
1 39020U 12069A   26115.95808405 -.00000057  00000+0  00000+0 0  9997
2 39020   0.0694  16.4292 0005094  15.8514 237.0810  1.00271447 48987
YAMAL 402               
1 39022U 12070A   26115.93443959  .00000074  00000+0  00000+0 0  9996
2 39022   1.1323  84.7493 0003871 303.8325 216.6582  1.00271049 48877
SKYNET 5D               
1 39034U 12075A   26115.97285200  .00000086  00000+0  00000+0 0  9994
2 39034   0.0707   4.7715 0003633  27.9258 224.2557  1.00272223 48634
MEXSAT 3                
1 39035U 12075B   26115.90081280 -.00000039  00000+0  00000+0 0  9999
2 39035   0.0034 132.3067 0001972 281.6550   9.4588  1.00268611  6529
TDRS 11                 
1 39070U 13004A   26115.91718157  .00000068  00000+0  00000+0 0  9993
2 39070   3.4447  30.3405 0005423   0.8571 338.7720  1.00264257 46167
AMAZONAS 3              
1 39078U 13006A   26115.87336475 -.00000296  00000+0  00000+0 0  9991
2 39078   0.0209 171.1009 0001465 206.5921  89.6126  1.00271122 44398
AZERSPACE 1             
1 39079U 13006B   26115.95252912  .00000000  00000+0  00000+0 0  9996
2 39079   0.0171 104.0796 0001932 332.2211 166.5564  1.00270826 48286
SBIRS GEO-2 (USA 241)   
1 39120U 13011A   26115.69971990 -.00000297  00000+0  00000+0 0  9993
2 39120   4.3769  52.4467 0002242 338.3694  24.9983  1.00271371 48010
EUTELSAT 117 WEST A     
1 39122U 13012A   26115.90046612 -.00000026  00000+0  00000+0 0  9994
2 39122   0.0194 305.8013 0002561  74.4515  41.0286  1.00270393 47909
ANIK G1                 
1 39127U 13014A   26115.90237280  .00000000  00000+0  00000+0 0  9995
2 39127   0.0232 107.2533 0002189 268.6937  55.5217  1.00269303 47722
ZHONGXING-11            
1 39157U 13020A   26114.73086053 -.00000305  00000+0  00000+0 0  9994
2 39157   0.0222 295.6622 0001494 102.4154 175.6572  1.00274217 47367
EUTELSAT 7B             
1 39163U 13022A   26115.92499288  .00000034  00000+0  00000+0 0  9991
2 39163   0.0752  19.9765 0005905 357.5106 176.4297  1.00271213 47421
WGS F5 (USA 243)        
1 39168U 13024A   26115.91320618 -.00000298  00000+0  00000+0 0  9990
2 39168   0.0118 240.2311 0000374  77.7192 172.2283  1.00271709 46652
SES-6                   
1 39172U 13026A   26115.91554618 -.00000275  00000+0  00000+0 0  9991
2 39172   0.0245 342.6069 0002381  55.9604 104.4479  1.00271210 47204
IRNSS-1A                
1 39199U 13034A   26115.93443959  .00000075  00000+0  00000+0 0  9993
2 39199  35.6100  64.6165 0017037 187.4243 353.2554  1.00272234 46843
MUOS-2                  
1 39206U 13036A   26115.75947311 -.00000024  00000+0  00000+0 0  9990
2 39206   4.8919  45.4347 0050525 180.6758  73.0089  1.00270780 46666
